[{"OBJECT_NAME":"STARLINK-36031","OBJECT_ID":"2025-270F","EPOCH":"2026-03-09T23:41:33.495936","MEAN_MOTION":15.27605123,"ECCENTRICITY":4.43e-5,"INCLINATION":43.0003,"RA_OF_ASC_NODE":54.3023,"ARG_OF_PERICENTER":213.5296,"MEAN_ANOMALY":146.5528,"EPHEMERIS_TYPE":0,"CLASSIFICATION_TYPE":"U","NORAD_CAT_ID":66593,"ELEMENT_SET_NO":999,"REV_AT_EPOCH":1775,"BSTAR":0.0011946601,"MEAN_MOTION_DOT":0.00032784,"MEAN_MOTION_DDOT":0},{"OBJECT_NAME":"CZ-6A DEB","OBJECT_ID":"2024-140NC","EPOCH":"2026-03-09T01:19:44.598720","MEAN_MOTION":14.85954551,"ECCENTRICITY":0.01874643,"INCLINATION":89.0262,"RA_OF_ASC_NODE":281.6645,"ARG_OF_PERICENTER":160.2054,"MEAN_ANOMALY":200.6578,"EPHEMERIS_TYPE":0,"CLASSIFICATION_TYPE":"U","NORAD_CAT_ID":61086,"ELEMENT_SET_NO":999,"REV_AT_EPOCH":8276,"BSTAR":0.00091551765,"MEAN_MOTION_DOT":0.00011041,"MEAN_MOTION_DDOT":0}]
